{
    "links": {
        "self": "http://www.neowsapp.com/rest/v1/neo/54051041?api_key=iIulBulltgU6a56xZRHN4H3l9WmuAYTsLGpBGhQ2"
    },
    "id": "54051041",
    "neo_reference_id": "54051041",
    "name": "(2020 PO2)",
    "designation": "2020 PO2",
    "nasa_jpl_url": "http://ssd.jpl.nasa.gov/sbdb.cgi?sstr=54051041",
    "absolute_magnitude_h": 25.056,
    "estimated_diameter": {
        "kilometers": {
            "estimated_diameter_min": 0.0259032929,
            "estimated_diameter_max": 0.0579215238
        },
        "meters": {
            "estimated_diameter_min": 25.9032929161,
            "estimated_diameter_max": 57.9215238016
        },
        "miles": {
            "estimated_diameter_min": 0.016095555,
            "estimated_diameter_max": 0.0359907552
        },
        "feet": {
            "estimated_diameter_min": 84.984559531,
            "estimated_diameter_max": 190.0312521492
        }
    },
    "is_potentially_hazardous_asteroid": false,
    "close_approach_data": [
        {
            "close_approach_date": "2020-07-24",
            "close_approach_date_full": "2020-Jul-24 03:23",
            "epoch_date_close_approach": 1595560980000,
            "relative_velocity": {
                "kilometers_per_second": "5.6278240476",
                "kilometers_per_hour": "20260.1665715396",
                "miles_per_hour": "12588.879612188"
            },
            "miss_distance": {
                "astronomical": "0.0883457389",
                "lunar": "34.3664924321",
                "kilometers": "13216334.363016143",
                "miles": "8212249.3661150534"
            },
            "orbiting_body": "Earth"
        }
    ],
    "orbital_data": {
        "orbit_id": "2",
        "orbit_determination_date": "2020-08-23 06:55:43",
        "first_observation_date": "2020-07-29",
        "last_observation_date": "2020-08-22",
        "data_arc_in_days": 24,
        "observations_used": 16,
        "orbit_uncertainty": "7",
        "minimum_orbit_intersection": ".0853739",
        "jupiter_tisserand_invariant": "3.828",
        "epoch_osculation": "2459000.5",
        "eccentricity": ".4239192394231915",
        "semi_major_axis": "1.899046278208982",
        "inclination": "6.062609601494985",
        "ascending_node_longitude": "319.6907720880179",
        "orbital_period": "955.8764220022841",
        "perihelion_distance": "1.094004024321187",
        "perihelion_argument": "339.6679988781145",
        "aphelion_distance": "2.704088532096776",
        "perihelion_time": "2459051.477270251792",
        "mean_anomaly": "340.8010566342839",
        "mean_motion": ".3766177214057695",
        "equinox": "J2000",
        "orbit_class": {
            "orbit_class_type": "AMO",
            "orbit_class_description": "Near-Earth asteroid orbits similar to that of 1221 Amor",
            "orbit_class_range": "1.017 AU < q (perihelion) < 1.3 AU"
        }
    },
    "is_sentry_object": false
}